{
    "CCSDS_OMM_VERS": "3.0",
    "COMMENT": "GENERATED VIA SPACE-TRACK.ORG API",
    "CREATION_DATE": "2025-05-23T14:46:20",
    "ORIGINATOR": "18 SPCS",
    "OBJECT_NAME": "BEIDOU 3M25",
    "OBJECT_ID": "2024-168B",
    "CENTER_NAME": "EARTH",
    "REF_FRAME": "TEME",
    "TIME_SYSTEM": "UTC",
    "MEAN_ELEMENT_THEORY": "SGP4",
    "EPOCH": "2025-05-23T13:40:51.358368",
    "MEAN_MOTION": "1.86229834",
    "ECCENTRICITY": "0.00033130",
    "INCLINATION": "54.8165",
    "RA_OF_ASC_NODE": "315.7488",
    "ARG_OF_PERICENTER": "299.8028",
    "MEAN_ANOMALY": "20.6031",
    "EPHEMERIS_TYPE": "0",
    "CLASSIFICATION_TYPE": "U",
    "NORAD_CAT_ID": "61186",
    "ELEMENT_SET_NO": "999",
    "REV_AT_EPOCH": "452",
    "BSTAR": "0.00000000000000",
    "MEAN_MOTION_DOT": "-0.00000062",
    "MEAN_MOTION_DDOT": "0.0000000000000",
    "SEMIMAJOR_AXIS": "27906.305",
    "PERIOD": "773.238",
    "APOAPSIS": "21537.415",
    "PERIAPSIS": "21518.925",
    "OBJECT_TYPE": "PAYLOAD",
    "RCS_SIZE": null,
    "COUNTRY_CODE": "PRC",
    "LAUNCH_DATE": "2024-09-19",
    "SITE": "XSC",
    "DECAY_DATE": null,
    "FILE": "4737000",
    "GP_ID": "288175204",
    "TLE_LINE0": "0 BEIDOU 3M25",
    "TLE_LINE1": "1 61186U 24168B   25143.57003887 -.00000062  00000-0  00000+0 0  9994",
    "TLE_LINE2": "2 61186  54.8165 315.7488 0003313 299.8028  20.6031  1.86229834  4523"
}